[{"OBJECT_NAME":"QIANFAN-103","OBJECT_ID":"2025-233N","EPOCH":"2026-02-01T22:38:46.431744","MEAN_MOTION":13.50988262,"ECCENTRICITY":0.00018487,"INCLINATION":88.9914,"RA_OF_ASC_NODE":56.8879,"ARG_OF_PERICENTER":88.331,"MEAN_ANOMALY":271.8053,"EPHEMERIS_TYPE":0,"CLASSIFICATION_TYPE":"U","NORAD_CAT_ID":66045,"ELEMENT_SET_NO":999,"REV_AT_EPOCH":1492,"BSTAR":8.2194649e-5,"MEAN_MOTION_DOT":6.5e-7,"MEAN_MOTION_DDOT":0},{"OBJECT_NAME":"QIANFAN-104","OBJECT_ID":"2025-233P","EPOCH":"2026-01-29T23:38:36.077856","MEAN_MOTION":13.48552455,"ECCENTRICITY":0.00133172,"INCLINATION":88.9979,"RA_OF_ASC_NODE":57.0837,"ARG_OF_PERICENTER":244.9177,"MEAN_ANOMALY":115.0591,"EPHEMERIS_TYPE":0,"CLASSIFICATION_TYPE":"U","NORAD_CAT_ID":66046,"ELEMENT_SET_NO":999,"REV_AT_EPOCH":1458,"BSTAR":-3.6285536,"MEAN_MOTION_DOT":-0.02109389,"MEAN_MOTION_DDOT":0},{"OBJECT_NAME":"QIANFAN-105","OBJECT_ID":"2025-233Q","EPOCH":"2026-01-30T00:58:56.475552","MEAN_MOTION":13.58123824,"ECCENTRICITY":0.00174432,"INCLINATION":88.9954,"RA_OF_ASC_NODE":56.9198,"ARG_OF_PERICENTER":234.9071,"MEAN_ANOMALY":125.0449,"EPHEMERIS_TYPE":0,"CLASSIFICATION_TYPE":"U","NORAD_CAT_ID":66047,"ELEMENT_SET_NO":999,"REV_AT_EPOCH":1468,"BSTAR":-3.1488313,"MEAN_MOTION_DOT":-0.0212762,"MEAN_MOTION_DDOT":0},{"OBJECT_NAME":"QIANFAN-106","OBJECT_ID":"2025-233R","EPOCH":"2026-02-01T22:50:42.991008","MEAN_MOTION":13.50993981,"ECCENTRICITY":0.00020891,"INCLINATION":88.9901,"RA_OF_ASC_NODE":56.8636,"ARG_OF_PERICENTER":101.9935,"MEAN_ANOMALY":258.1451,"EPHEMERIS_TYPE":0,"CLASSIFICATION_TYPE":"U","NORAD_CAT_ID":66048,"ELEMENT_SET_NO":999,"REV_AT_EPOCH":1493,"BSTAR":6.7971805e-5,"MEAN_MOTION_DOT":5.6e-7,"MEAN_MOTION_DDOT":0},{"OBJECT_NAME":"QIANFAN-107","OBJECT_ID":"2025-233S","EPOCH":"2026-02-01T23:02:31.384608","MEAN_MOTION":13.50991258,"ECCENTRICITY":0.00018758,"INCLINATION":88.9917,"RA_OF_ASC_NODE":56.8737,"ARG_OF_PERICENTER":89.3597,"MEAN_ANOMALY":270.777,"EPHEMERIS_TYPE":0,"CLASSIFICATION_TYPE":"U","NORAD_CAT_ID":66049,"ELEMENT_SET_NO":999,"REV_AT_EPOCH":1493,"BSTAR":5.8078213e-5,"MEAN_MOTION_DOT":5.0e-7,"MEAN_MOTION_DDOT":0},{"OBJECT_NAME":"QIANFAN-108","OBJECT_ID":"2025-233T","EPOCH":"2026-02-01T23:08:29.658624","MEAN_MOTION":13.50993364,"ECCENTRICITY":0.00020978,"INCLINATION":88.991,"RA_OF_ASC_NODE":56.8706,"ARG_OF_PERICENTER":100.6516,"MEAN_ANOMALY":259.4872,"EPHEMERIS_TYPE":0,"CLASSIFICATION_TYPE":"U","NORAD_CAT_ID":66050,"ELEMENT_SET_NO":999,"REV_AT_EPOCH":1493,"BSTAR":5.0010322e-5,"MEAN_MOTION_DOT":4.4e-7,"MEAN_MOTION_DDOT":0}]
