QIANFAN-103             
1 66045U 25233N   26032.94359296  .00000065  00000+0  82195-4 0  9995
2 66045  88.9914  56.8879 0001848  88.3310 271.8053 13.50988262 14925
QIANFAN-104             
1 66046U 25233P   26029.98513979 -.02109389  00000+0 -36286+1 0  9995
2 66046  88.9979  57.0837 0013317 244.9177 115.0591 13.48552455 14585
QIANFAN-105             
1 66047U 25233Q   26030.04093143 -.02127620  00000+0 -31488+1 0  9998
2 66047  88.9954  56.9198 0017443 234.9071 125.0449 13.58123824 14682
QIANFAN-106             
1 66048U 25233R   26032.95188647  .00000056  00000+0  67972-4 0  9995
2 66048  88.9901  56.8636 0002089 101.9935 258.1451 13.50993981 14933
QIANFAN-107             
1 66049U 25233S   26032.96008547  .00000050  00000+0  58078-4 0  9998
2 66049  88.9917  56.8737 0001875  89.3597 270.7770 13.50991258 14937
QIANFAN-108             
1 66050U 25233T   26032.96423216  .00000044  00000+0  50010-4 0  9995
2 66050  88.9910  56.8706 0002097 100.6516 259.4872 13.50993364 14930
